INTELSAT 21 (IS-21)     
1 38749U 12045A   26168.81408096 -.00000290  00000+0  00000+0 0  9992
2 38749   0.0176 355.7130 0001375 110.1089  35.3016  1.00269936 50534
INTELSAT 23 (IS-23)     
1 38867U 12057A   26168.81503431 -.00000290  00000+0  00000+0 0  9995
2 38867   0.0135 312.7786 0000167  56.9469 136.7468  1.00267738 49967
FM-6                    
1 39360U 13058A   26168.46919676  .00000000  00000+0  00000+0 0  9997
2 39360   0.0312  44.0420 0002221 130.9080 143.3512  1.00264299 46070
INTELSAT 30 (IS-30)     
1 40271U 14062A   26168.32405734 -.00000155  00000+0  00000+0 0  9998
2 40271   0.0268  50.1227 0001219 328.9119 268.1517  1.00270102  6790
DIRECTV 14              
1 40333U 14078B   26168.59198813 -.00000131  00000+0  00000+0 0  9994
2 40333   0.0105  11.4946 0000357 308.2020  60.0259  1.00273169 42047
DIRECTV 15              
1 40663U 15026A   26168.66252090 -.00000107  00000+0  00000+0 0  9993
2 40663   0.0133  35.6671 0000411 285.0486  80.8190  1.00267784 40460
SKY MEXICO-1            
1 40664U 15026B   26168.80992095 -.00000239  00000+0  00000+0 0  9992
2 40664   0.0160  23.8332 0002070  83.8106  11.1779  1.00270026 40463
INTELSAT 34 (IS-34)     
1 40874U 15039A   26168.81451431 -.00000291  00000+0  00000+0 0  9992
2 40874   0.0102 356.7647 0000477 331.2099 175.8221  1.00269575 39644
INTELSAT 31 (IS-31)     
1 41581U 16035A   26168.80671426 -.00000156  00000+0  00000+0 0  9992
2 41581   0.0150 286.9392 0001074 329.0178 205.4561  1.00269666 36691
INTELSAT 36 (IS-36)     
1 41747U 16053A   26168.83907066 -.00000030  00000+0  00000+0 0  9992
2 41747   0.0131  13.8911 0002150 319.5503 303.2041  1.00271067 35967
INTELSAT 32E (IS-32E)   
1 41945U 17007B   26168.81694097 -.00000275  00000+0  00000+0 0  9998
2 41945   0.0178 357.9916 0000716 314.7958 204.1882  1.00268882 34234
INTELSAT 35E (IS-35E)   
1 42818U 17041A   26168.67612764  .00000000  00000+0  00000+0 0  9996
2 42818   0.0204   1.0645 0001683  79.9055  33.8532  1.00266508 32827
INTELSAT 37E (IS-37E)   
1 42950U 17059A   26167.75256368 -.00000143  00000+0  00000+0 0  9993
2 42950   0.0164  21.9885 0002368  84.8898  51.0770  1.00271710 32060
AZERSPACE 2 (IS-38)     
1 43632U 18074A   26168.83826590  .00000131  00000+0  00000+0 0  9995
2 43632   0.0176  11.3213 0001273  77.3444 164.2968  1.00271105 28459
HORIZONS-3E             
1 43633U 18074B   26168.71640351 -.00000036  00000+0  00000+0 0  9997
2 43633   0.0021 233.5565 0000869  40.2741  59.0407  1.00270832 28349
AT&T T-16               
1 44333U 19034A   26168.59164146 -.00000120  00000+0  00000+0 0  9995
2 44333   0.0252  66.2499 0000772 211.2042 100.5032  1.00268538 25632
INTELSAT 39 (IS-39)     
1 44476U 19049B   26168.85352615  .00000028  00000+0  00000+0 0  9994
2 44476   0.0162 356.9026 0000915 323.4763 314.9363  1.00270858 25131
GALAXY 30 (G-30)        
1 46114U 20056C   26168.72949023  .00000032  00000+0  00000+0 0  9991
2 46114   0.0146  50.6946 0002128  36.1125 316.7814  1.00271477 21293
GALAXY 33 (G-33)        
1 54026U 22128A   26168.72793022  .00000074  00000+0  00000+0 0  9996
2 54026   0.0135  36.9082 0001639  51.3449 306.7868  1.00272294 13741
GALAXY 34 (G-34)        
1 54027U 22128B   26168.72862358  .00000053  00000+0  00000+0 0  9993
2 54027   0.0148  14.9716 0001609  90.3282 293.9894  1.00277403 13913
GALAXY 31 (G-31)        
1 54243U 22153A   26168.65896756  .00000008  00000+0  00000+0 0  9992
2 54243   0.0132  53.6046 0001047  23.1287 305.3899  1.00271249  7139
GALAXY 32 (G-32)        
1 54244U 22153B   26168.66486093 -.00000179  00000+0  00000+0 0  9993
2 54244   0.0096  17.9348 0002090  15.4582  20.8718  1.00271709 13146
GALAXY 35 (G-35)        
1 54741U 22170A   26168.80697427 -.00000168  00000+0  00000+0 0  9993
2 54741   0.0146  35.1188 0001770  48.8424  19.4903  1.00272514 12905
GALAXY 36 (G-36)        
1 54742U 22170B   26168.80792762 -.00000190  00000+0  00000+0 0  9997
2 54742   0.0112 302.3756 0002549 142.4671  23.0617  1.00270131 12781
GALAXY 37 (G-37)        
1 57493U 23112A   26168.65775421  .00000043  00000+0  00000+0 0  9992
2 57493   0.0168 330.4587 0001757 110.7242 294.5174  1.00272276 10541
